POLYITAN-1              
1 40042U 14033AJ  26193.04049051  .00011843  00000+0  36063-3 0  9992
2 40042  98.0942 221.6676 0008162  73.0393 287.1741 15.34143583657405
TIGRISAT                
1 40043U 14033AK  26192.36972540  .00000887  00000+0  10764-3 0  9991
2 40043  97.7858 341.8319 0048956 356.9649   3.1262 14.85242878649215
LEMUR-1                 
1 40044U 14033AL  26192.88323400  .00000888  00000+0  10759-3 0  9999
2 40044  97.7903 342.1444 0048047 358.8650   1.2448 14.85331099649134
AEROCUBE 6A             
1 40045U 14033AM  26193.06882602  .00003093  00000+0  26138-3 0  9994
2 40045  97.7234 359.7579 0036618 291.7441  67.9886 14.98323758650346
AEROCUBE 6B             
1 40046U 14033AN  26191.24554496  .00003186  00000+0  25890-3 0  9997
2 40046  97.7203 357.7928 0037944 287.6201  72.0880 14.99771692650212
SPOT 7                  
1 40053U 14034A   26193.17989073  .00000026  00000+0  14580-4 0  9998
2 40053  98.0623 255.0261 0001564  97.0740 263.0639 14.60978805640788
CANX-4                  
1 40055U 14034C   26193.14521777  .00000451  00000+0  65105-4 0  9991
2 40055  98.3089  69.3710 0011495 293.7859  66.2147 14.81308004648229
CANX-5                  
1 40056U 14034D   26193.14335944  .00000459  00000+0  66166-4 0  9997
2 40056  98.3091  69.4141 0011493 293.9901  66.0106 14.81325415639037
OCO 2                   
1 40059U 14035A   26193.15103286  .00000192  00000+0  52731-4 0  9991
2 40059  98.2021 134.0648 0001457  81.3866 278.7497 14.57130867639685
GONETS-M 8              
1 40061U 14036A   26193.24063106  .00000103  00000+0  67191-3 0  9998
2 40061  82.5118 292.0189 0031100  95.0951 265.3679 12.42986533545569
GONETS-M 9              
1 40062U 14036B   26193.20199324 -.00000067  00000+0 -55329-3 0  9998
2 40062  82.5116 292.1223 0024368 101.5874 258.7943 12.42951581545568
GONETS-M 10             
1 40063U 14036C   26193.18437067  .00000014  00000+0  27347-4 0  9995
2 40063  82.5121 292.1489 0022983  88.6942 271.6771 12.42946324545350
METEOR-M 2              
1 40069U 14037A   26193.20438817  .00000371  00000+0  18903-3 0  9992
2 40069  98.5123 168.0583 0005329 336.7440  23.3496 14.21469584622872
DX1                     
1 40071U 14037C   26193.20835444  .00000828  00000+0  92194-4 0  9994
2 40071  98.3876 156.4315 0006759 178.5847 181.5389 14.90059527649834
SKYSAT-B                
1 40072U 14037D   26192.87034045  .00000667  00000+0  79264-4 0  9999
2 40072  98.3853 153.2453 0005309 183.3680 176.7500 14.88087332649638
UKUBE-1                 
1 40074U 14037F   26192.95667084  .00005077  00000+0  28459-3 0  9994
2 40074  98.4242 198.8382 0003280  93.2420 266.9184 15.13920284652305
TECHDEMOSAT-1 (TDS-1)   
1 40076U 14037H   26192.88518611  .00004272  00000+0  24189-3 0  9991
2 40076  98.3822 187.5538 0006572 169.0701 191.0671 15.13649220651967
O3B FM3                 
1 40079U 14038A   26193.09213216 -.00000017  00000+0  00000+0 0  9998
2 40079   0.0477 352.7467 0002647 171.7392 195.5208  5.00115676214292
O3B FM7                 
1 40080U 14038B   26192.23869366 -.00000014  00000+0  00000+0 0  9995
2 40080   0.0453 343.9930 0003620  94.9977 281.0494  5.00115631219083
O3B FM6                 
1 40081U 14038C   26193.06522902 -.00000016  00000+0  00000+0 0  9992
2 40081   0.0464 349.8561 0002605 120.3756 249.7950  5.00115671219073
O3B FM8                 
1 40082U 14038D   26192.91857591 -.00000016  00000+0  00000+0 0  9991
2 40082   0.0460 348.5043 0002757 121.3824 250.1418  5.00116048219182
ORBCOMM FM109           
1 40086U 14040A   26192.41116868  .00000148  00000+0  67459-4 0  9999
2 40086  47.0045 336.9567 0001649 310.9227  49.1516 14.58870325637884
NAVSTAR 71 (USA 256)    
1 40105U 14045A   26192.48449105 -.00000038  00000+0  00000+0 0  9999
2 40105  55.3686  87.4969 0034253 118.3351 242.0458  2.00559992 86568
ASIASAT 8 (AMOS-7)      
1 40107U 14046A   26193.01348108  .00000000  00000+0  00000+0 0  9991
2 40107   0.0270  37.4219 0001307  90.8652 271.7839  1.00267127102398
YAOGAN-20 01A           
1 40109U 14047A   26193.18534866 -.00000215  00000+0 -13191-3 0  9999
2 40109  63.3802 314.6928 0392112  14.8212 346.3927 13.45443061585808
YAOGAN-20 01B           
1 40110U 14047B   26193.18706184 -.00000138  00000+0 -50213-4 0  9996
2 40110  63.3802 315.5669 0391966  14.8413 346.3736 13.45441043585649
YAOGAN-20 01C           
1 40111U 14047C   26193.17742784 -.00000212  00000+0 -12856-3 0  9995
2 40111  63.3792 315.2680 0392035  15.2332 346.0109 13.45450870585651
WORLDVIEW-3 (WV-3)      
1 40115U 14048A   26193.16513045  .00000400  00000+0  53119-4 0  9990
2 40115  97.8557 267.6525 0001067 160.4981 199.6275 14.85061333645615
GAOFEN-2                
1 40118U 14049A   26193.17616472 -.00000358  00000+0 -39414-4 0  9999
2 40118  98.0104 257.3581 0008054 143.2413 216.9352 14.80923484642939
BRITE-PL2 (HEWELIUSZ)   
1 40119U 14049B   26192.87582479  .00001013  00000+0  98740-4 0  9999
2 40119  97.9118 305.0696 0014633  33.0365 327.1766 14.94681645645137
GSAT0201 (GALILEO 5)    
1 40128U 14050A   26191.05431484 -.00000022  00000+0  00000+0 0  9996
2 40128  48.8500 272.4979 1677815 180.2883 179.6634  1.85519753 78743
